STARLINK-32151          
1 60299U 24132X   26068.27652203  .00000598  00000+0  32345-4 0  9999
2 60299  53.1616  25.9023 0001195  75.1928 284.9205 15.30180538 91890
TOMORROW-S2             
1 60485U 24149T   26068.75188364  .00008133  00000+0  27683-3 0  9990
2 60485  97.3857 150.0385 0001648 234.3331 125.7757 15.30674935 86869
